{
  "type": "FeatureCollection",
  "features": [
    {
      "type": "Feature",
      "properties": {
        "norad_id": 28051,
        "name": "IRS-P6 (RESOURCESAT-1)",
        "group": "resource",
        "lat": 26.738490316931056,
        "lon": 30.716655885894657,
        "alt_km": 799.4927729895262,
        "timestamp": "2025-12-20T20:38:44.100575+00:00",
        "meta_object_name": "IRS-P6 (RESOURCESAT-1)",
        "meta_object_id": "2003-046A",
        "meta_epoch": "2025-12-20T14:32:22.067808",
        "meta_mean_motion": 14.36079057,
        "meta_eccentricity": 0.00646317,
        "meta_inclination": 98.217,
        "meta_ra_of_asc_node": 34.6487,
        "meta_arg_of_pericenter": 157.127,
        "meta_mean_anomaly": 356.0199,
        "meta_ephemeris_type": 0,
        "meta_classification_type": "U",
        "meta_norad_cat_id": 28051,
        "meta_element_set_no": 999,
        "meta_rev_at_epoch": 15489,
        "meta_bstar": 0.00014287774,
        "meta_mean_motion_dot": 3.85e-06,
        "meta_mean_motion_ddot": 0,
        "tle_line1": "1 28051U 03046A   25354.60581097  .00000385  00000+0  14288-3 0  9995",
        "tle_line2": "2 28051  98.2170  34.6487 0064631 157.1270 356.0199 14.36079057154892"
      },
      "geometry": {
        "type": "Point",
        "coordinates": [
          30.716655885894657,
          26.738490316931056
        ]
      }
    },
    {
      "type": "Feature",
      "properties": {
        "norad_id": 28220,
        "name": "SHIYAN-1 (SY-1)",
        "group": "resource",
        "lat": 70.2440127558355,
        "lon": 34.15556413825643,
        "alt_km": 476.7215220881035,
        "timestamp": "2025-12-20T20:38:44.100586+00:00",
        "meta_object_name": "SHIYAN-1 (SY-1)",
        "meta_object_id": "2004-012A",
        "meta_epoch": "2025-12-20T10:54:15.638688",
        "meta_mean_motion": 15.28330123,
        "meta_eccentricity": 0.00052308,
        "meta_inclination": 97.893,
        "meta_ra_of_asc_node": 56.4489,
        "meta_arg_of_pericenter": 293.6442,
        "meta_mean_anomaly": 66.4247,
        "meta_ephemeris_type": 0,
        "meta_classification_type": "U",
        "meta_norad_cat_id": 28220,
        "meta_element_set_no": 999,
        "meta_rev_at_epoch": 18374,
        "meta_bstar": 0.00035174832,
        "meta_mean_motion_dot": 9.629e-05,
        "meta_mean_motion_ddot": 0,
        "tle_line1": "1 28220U 04012A   25354.45434767  .00009629  00000+0  35175-3 0  9999",
        "tle_line2": "2 28220  97.8930  56.4489 0005230 293.6442  66.4247 15.28330123183748"
      },
      "geometry": {
        "type": "Point",
        "coordinates": [
          34.15556413825643,
          70.2440127558355
        ]
      }
    },
    {
      "type": "Feature",
      "properties": {
        "norad_id": 28376,
        "name": "AURA",
        "group": "resource",
        "lat": -58.112263441241716,
        "lon": -41.27171923473075,
        "alt_km": 698.0090838587366,
        "timestamp": "2025-12-20T20:38:44.100597+00:00",
        "meta_object_name": "AURA",
        "meta_object_id": "2004-026A",
        "meta_epoch": "2025-12-20T14:20:27.024000",
        "meta_mean_motion": 14.60962977,
        "meta_eccentricity": 0.00013691,
        "meta_inclination": 98.3195,
        "meta_ra_of_asc_node": 304.861,
        "meta_arg_of_pericenter": 93.0638,
        "meta_mean_anomaly": 267.0719,
        "meta_ephemeris_type": 0,
        "meta_classification_type": "U",
        "meta_norad_cat_id": 28376,
        "meta_element_set_no": 999,
        "meta_rev_at_epoch": 14013,
        "meta_bstar": 0.00015277441,
        "meta_mean_motion_dot": 7.01e-06,
        "meta_mean_motion_ddot": 0,
        "tle_line1": "1 28376U 04026A   25354.59753500  .00000701  00000+0  15277-3 0  9993",
        "tle_line2": "2 28376  98.3195 304.8610 0001369  93.0638 267.0719 14.60962977140135"
      },
      "geometry": {
        "type": "Point",
        "coordinates": [
          -41.27171923473075,
          -58.112263441241716
        ]
      }
    },
    {
      "type": "Feature",
      "properties": {
        "norad_id": 28649,
        "name": "IRS-P5 (CARTOSAT-1)",
        "group": "resource",
        "lat": -65.43397102464115,
        "lon": 37.77661231840901,
        "alt_km": 604.074169485978,
        "timestamp": "2025-12-20T20:38:44.100608+00:00",
        "meta_object_name": "IRS-P5 (CARTOSAT-1)",
        "meta_object_id": "2005-017A",
        "meta_epoch": "2025-12-19T23:59:49.912800",
        "meta_mean_motion": 14.90427288,
        "meta_eccentricity": 8.04e-05,
        "meta_inclination": 97.5486,
        "meta_ra_of_asc_node": 20.0911,
        "meta_arg_of_pericenter": 50.7358,
        "meta_mean_anomaly": 309.3932,
        "meta_ephemeris_type": 0,
        "meta_classification_type": "U",
        "meta_norad_cat_id": 28649,
        "meta_element_set_no": 999,
        "meta_rev_at_epoch": 11712,
        "meta_bstar": 0.00010855912,
        "meta_mean_motion_dot": 1.006e-05,
        "meta_mean_motion_ddot": 0,
        "tle_line1": "1 28649U 05017A   25353.99988325  .00001006  00000+0  10856-3 0  9992",
        "tle_line2": "2 28649  97.5486  20.0911 0000804  50.7358 309.3932 14.90427288117129"
      },
      "geometry": {
        "type": "Point",
        "coordinates": [
          37.77661231840901,
          -65.43397102464115
        ]
      }
    },
    {
      "type": "Feature",
      "properties": {
        "norad_id": 28893,
        "name": "SINAH 1",
        "group": "resource",
        "lat": -54.552329980069615,
        "lon": -68.33580617658393,
        "alt_km": 693.267165477303,
        "timestamp": "2025-12-20T20:38:44.100619+00:00",
        "meta_object_name": "SINAH 1",
        "meta_object_id": "2005-043D",
        "meta_epoch": "2025-12-20T14:39:15.166080",
        "meta_mean_motion": 14.6397003,
        "meta_eccentricity": 0.00156417,
        "meta_inclination": 98.2608,
        "meta_ra_of_asc_node": 123.1891,
        "meta_arg_of_pericenter": 113.9569,
        "meta_mean_anomaly": 246.3273,
        "meta_ephemeris_type": 0,
        "meta_classification_type": "U",
        "meta_norad_cat_id": 28893,
        "meta_element_set_no": 999,
        "meta_rev_at_epoch": 7439,
        "meta_bstar": 6.2974647e-05,
        "meta_mean_motion_dot": 2.81e-06,
        "meta_mean_motion_ddot": 0,
        "tle_line1": "1 28893U 05043D   25354.61059220  .00000281  00000+0  62975-4 0  9999",
        "tle_line2": "2 28893  98.2608 123.1891 0015641 113.9569 246.3273 14.63970030 74394"
      },
      "geometry": {
        "type": "Point",
        "coordinates": [
          -68.33580617658393,
          -54.552329980069615
        ]
      }
    },
    {
      "type": "Feature",
      "properties": {
        "norad_id": 29079,
        "name": "EROS B",
        "group": "resource",
        "lat": 81.64447977864894,
        "lon": 50.37983508843186,
        "alt_km": 351.11104457633974,
        "timestamp": "2025-12-20T20:38:44.100629+00:00",
        "meta_object_name": "EROS B",
        "meta_object_id": "2006-014A",
        "meta_epoch": "2025-12-20T14:09:52.878240",
        "meta_mean_motion": 15.70656861,
        "meta_eccentricity": 0.00035331,
        "meta_inclination": 97.3465,
        "meta_ra_of_asc_node": 111.5523,
        "meta_arg_of_pericenter": 311.196,
        "meta_mean_anomaly": 48.8998,
        "meta_ephemeris_type": 0,
        "meta_classification_type": "U",
        "meta_norad_cat_id": 29079,
        "meta_element_set_no": 999,
        "meta_rev_at_epoch": 9203,
        "meta_bstar": 0.0010370614,
        "meta_mean_motion_dot": 0.00129533,
        "meta_mean_motion_ddot": 0,
        "tle_line1": "1 29079U 06014A   25354.59019535  .00129533  00000+0  10371-2 0  9990",
        "tle_line2": "2 29079  97.3465 111.5523 0003533 311.1960  48.8998 15.70656861 92031"
      },
      "geometry": {
        "type": "Point",
        "coordinates": [
          50.37983508843186,
          81.64447977864894
        ]
      }
    },
    {
      "type": "Feature",
      "properties": {
        "norad_id": 29228,
        "name": "RESURS-DK 1",
        "group": "resource",
        "lat": 36.23335836784571,
        "lon": -114.68393390637216,
        "alt_km": 528.0830392793441,
        "timestamp": "2025-12-20T20:38:44.100640+00:00",
        "meta_object_name": "RESURS-DK 1",
        "meta_object_id": "2006-021A",
        "meta_epoch": "2025-12-20T10:29:55.559904",
        "meta_mean_motion": 15.12200316,
        "meta_eccentricity": 0.00068697,
        "meta_inclination": 69.9339,
        "meta_ra_of_asc_node": 81.9448,
        "meta_arg_of_pericenter": 252.5475,
        "meta_mean_anomaly": 107.494,
        "meta_ephemeris_type": 0,
        "meta_classification_type": "U",
        "meta_norad_cat_id": 29228,
        "meta_element_set_no": 999,
        "meta_rev_at_epoch": 7554,
        "meta_bstar": 0.00011186908,
        "meta_mean_motion_dot": 1.829e-05,
        "meta_mean_motion_ddot": 0,
        "tle_line1": "1 29228U 06021A   25354.43744861  .00001829  00000+0  11187-3 0  9998",
        "tle_line2": "2 29228  69.9339  81.9448 0006869 252.5475 107.4940 15.12200316 75544"
      },
      "geometry": {
        "type": "Point",
        "coordinates": [
          -114.68393390637216,
          36.23335836784571
        ]
      }
    }
  ]
}